0 NAVSTAR 37 (USA 117)
1 23833U 96019A   13280.89601638  .00000026  00000-0  10000-3 0  6741
2 23833 053.6222 085.9796 0165150 076.6095 285.2460 02.00557106128471
0 NAVSTAR 37 (USA 117)
1 23833U 96019A   13281.89320150  .00000026  00000-0  10000-3 0  6750
2 23833 053.6228 085.9380 0165178 076.6370 285.2176 02.00557093128493
0 NAVSTAR 37 (USA 117)
1 23833U 96019A   13282.89038821  .00000029  00000-0  10000-3 0  6766
2 23833 053.6233 085.8965 0165194 076.6739 285.1811 02.00557083128511
0 NAVSTAR 37 (USA 117)
1 23833U 96019A   13283.88757693  .00000032  00000-0  10000-3 0  6776
2 23833 053.6238 085.8548 0165216 076.6979 285.1593 02.00557079128538
0 NAVSTAR 37 (USA 117)
1 23833U 96019A   13284.88476597  .00000035  00000-0  10000-3 0  6782
2 23833 053.6243 085.8133 0165243 076.7150 285.1435 02.00557057128559
0 NAVSTAR 37 (USA 117)
1 23833U 96019A   13285.88195417  .00000035  00000-0  10000-3 0  6793
2 23833 053.6249 085.7717 0165255 076.7293 285.1305 02.00557045128578
0 NAVSTAR 37 (USA 117)
1 23833U 96019A   13286.38054778  .00000035  00000-0  10000-3 0  6805
2 23833 053.6256 085.7508 0165246 076.7122 285.1439 02.00556979128589
0 NAVSTAR 37 (USA 117)
1 23833U 96019A   13287.87632734  .00000026  00000-0  10000-3 0  6815
2 23833 053.6263 085.6882 0165277 076.7516 285.1046 02.00556969128619
0 NAVSTAR 37 (USA 117)
1 23833U 96019A   13288.37491885  .00000022  00000-0  10000-3 0  6828
2 23833 053.6265 085.6675 0165292 076.7666 285.0874 02.00556948128620
0 NAVSTAR 37 (USA 117)
1 23833U 96019A   13289.37209983  .00000011  00000-0  10000-3 0  6834
2 23833 053.6275 085.6259 0165316 076.7914 285.0571 02.00556917128644
0 NAVSTAR 37 (USA 117)
1 23833U 96019A   13290.36932079  .00000000  00000-0  10000-3 0  6843
2 23833 053.6294 085.5848 0165139 076.6970 285.1526 02.00556703128668
0 NAVSTAR 37 (USA 117)
1 23833U 96019A   13290.86787239 -.00000005  00000-0  10000-3 0  6840
2 23833 053.6287 085.5634 0165312 076.8429 284.9953 02.00556838128678
0 NAVSTAR 37 (USA 117)
1 23833U 96019A   13291.86505764 -.00000014  00000-0  10000-3 0  6853
2 23833 053.6290 085.5217 0165335 076.8643 284.9705 02.00556800128698
0 NAVSTAR 37 (USA 117)
1 23833U 96019A   13292.36365177 -.00000017  00000-0  10000-3 0  6865
2 23833 053.6294 085.5009 0165343 076.8119 285.0193 02.00556721128705
0 NAVSTAR 37 (USA 117)
1 23833U 96019A   13293.85944057 -.00000019  00000-0  10000-3 0  6873
2 23833 053.6303 085.4385 0165384 076.8430 284.9882 02.00556638128736
0 NAVSTAR 37 (USA 117)
1 23833U 96019A   13294.85662895 -.00000015  00000-0  10000-3 0  6888
2 23833 053.6310 085.3968 0165340 076.8552 284.9740 02.00556591128750
